{
    "links": {
        "self": "http://www.neowsapp.com/rest/v1/neo/3610167?api_key=iIulBulltgU6a56xZRHN4H3l9WmuAYTsLGpBGhQ2"
    },
    "id": "3610167",
    "neo_reference_id": "3610167",
    "name": "(2012 TC43)",
    "designation": "2012 TC43",
    "nasa_jpl_url": "http://ssd.jpl.nasa.gov/sbdb.cgi?sstr=3610167",
    "absolute_magnitude_h": 22.2,
    "estimated_diameter": {
        "kilometers": {
            "estimated_diameter_min": 0.096506147,
            "estimated_diameter_max": 0.2157943048
        },
        "meters": {
            "estimated_diameter_min": 96.5061469579,
            "estimated_diameter_max": 215.7943048444
        },
        "miles": {
            "estimated_diameter_min": 0.059966121,
            "estimated_diameter_max": 0.134088323
        },
        "feet": {
            "estimated_diameter_min": 316.6212271853,
            "estimated_diameter_max": 707.9865871058
        }
    },
    "is_potentially_hazardous_asteroid": false,
    "close_approach_data": [
        {
            "close_approach_date": "2012-08-25",
            "close_approach_date_full": "2012-Aug-25 21:18",
            "epoch_date_close_approach": 1345929480000,
            "relative_velocity": {
                "kilometers_per_second": "8.3367120414",
                "kilometers_per_hour": "30012.1633490058",
                "miles_per_hour": "18648.3911653864"
            },
            "miss_distance": {
                "astronomical": "0.1885027164",
                "lunar": "73.3275566796",
                "kilometers": "28199604.862654068",
                "miles": "17522421.9361514184"
            },
            "orbiting_body": "Earth"
        }
    ],
    "orbital_data": {
        "orbit_id": "8",
        "orbit_determination_date": "2017-04-06 08:48:44",
        "first_observation_date": "2012-10-08",
        "last_observation_date": "2012-10-21",
        "data_arc_in_days": 13,
        "observations_used": 19,
        "orbit_uncertainty": "8",
        "minimum_orbit_intersection": ".188595",
        "jupiter_tisserand_invariant": "2.577",
        "epoch_osculation": "2456210.5",
        "eccentricity": ".7026395301539455",
        "semi_major_axis": "3.759843763833368",
        "inclination": "9.398502034398854",
        "ascending_node_longitude": "210.0445026648155",
        "orbital_period": "2662.889375356529",
        "perihelion_distance": "1.118028908161248",
        "perihelion_argument": "110.5492492795518",
        "aphelion_distance": "6.401658619505488",
        "perihelion_time": "2456154.273301411312",
        "mean_anomaly": "7.60137153246089",
        "mean_motion": ".1351914966245266",
        "equinox": "J2000",
        "orbit_class": {
            "orbit_class_type": "AMO",
            "orbit_class_description": "Near-Earth asteroid orbits similar to that of 1221 Amor",
            "orbit_class_range": "1.017 AU < q (perihelion) < 1.3 AU"
        }
    },
    "is_sentry_object": false
}